{
  "amenity/post_box|Canada Post": {
    "countryCodes": ["ca"],
    "nomatch": [
      "amenity/post_office|Canada Post"
    ],
    "tags": {
      "amenity": "post_box",
      "brand": "Canada Post",
      "brand:wikidata": "Q1032001",
      "brand:wikipedia": "en:Canada Post",
      "name": "Canada Post"
    }
  },
  "amenity/post_box|Deutsche Post": {
    "countryCodes": ["de"],
    "matchNames": ["deutsche post ag"],
    "nomatch": [
      "amenity/post_office|Deutsche Post"
    ],
    "tags": {
      "amenity": "post_box",
      "brand": "Deutsche Post",
      "brand:wikidata": "Q157645",
      "brand:wikipedia": "en:Deutsche Post",
      "name": "Deutsche Post"
    }
  },
  "amenity/post_box|FedEx": {
    "nomatch": ["amenity/post_office|FedEx"],
    "tags": {
      "amenity": "post_box",
      "brand": "FedEx",
      "brand:wikidata": "Q459477",
      "brand:wikipedia": "en:FedEx",
      "name": "FedEx"
    }
  },
  "amenity/post_box|UPS": {
    "countryCodes": ["ca", "us"],
    "nomatch": [
      "amenity/post_office|The UPS Store"
    ],
    "tags": {
      "amenity": "post_box",
      "brand": "UPS",
      "brand:wikidata": "Q155026",
      "brand:wikipedia": "en:United Parcel Service",
      "name": "UPS"
    }
  },
  "amenity/post_box|USPS": {
    "countryCodes": ["us"],
    "nomatch": ["amenity/post_office|USPS"],
    "tags": {
      "amenity": "post_box",
      "brand": "USPS",
      "brand:wikidata": "Q668687",
      "brand:wikipedia": "en:United States Postal Service",
      "name": "USPS"
    }
  },
  "amenity/post_box|差出箱13号": {
    "countryCodes": ["jp"],
    "tags": {
      "amenity": "post_box",
      "brand": "差出箱13号",
      "name": "差出箱13号"
    }
  }
}